*******************************************************************************
 Revised: July 31, 2013              Mercury                            199 / 1

 PHYSICAL DATA (updated 2018-Aug-15):
  Vol. Mean Radius (km) =  2440+-1        Density (g cm^-3)     = 5.427
  Mass x10^23 (kg)      =     3.302       Volume (x10^10 km^3)  = 6.085  
  Sidereal rot. period  =    58.6463 d    Sid. rot. rate (rad/s)= 0.00000124001
  Mean solar day        =   175.9421 d    Core radius (km)      = ~1600 
  Geometric Albedo      =     0.106       Surface emissivity    = 0.77+-0.06
  GM (km^3/s^2)         = 22031.78        Equatorial radius, Re = 2440 km
  GM 1-sigma (km^3/s^2) =   +-0.91        Mass ratio (Sun/plnt) = 6023682
  Mom. of Inertia       =     0.33        Equ. gravity  m/s^2   = 3.701     
  Atmos. pressure (bar) = < 5x10^-15      Max. angular diam.    = 11.0"   
  Mean Temperature (K)  = 440             Visual mag. V(1,0)    = -0.42 
  Obliquity to orbit[1] =  2.11' +/- 0.1' Hill's sphere rad. Rp = 94.4 
  Sidereal orb. per.    =  0.2408467 y    Mean Orbit vel.  km/s = 47.362 
  Sidereal orb. per.    = 87.969257  d    Escape vel. km/s      =  4.435
                                 Perihelion  Aphelion    Mean
  Solar Constant (W/m^2)         14462       6278        9126
  Maximum Planetary IR (W/m^2)   12700       5500        8000
  Minimum Planetary IR (W/m^2)   6           6           6
*******************************************************************************
 
 
*******************************************************************************
Ephemeris / WWW_USER Tue Apr 28 05:21:32 2020 Pasadena, USA      / Horizons    
*******************************************************************************
Target body name: Mercury (199)                   {source: DE431mx}
Center body name: Sun (10)                        {source: DE431mx}
Center-site name: BODY CENTER
*******************************************************************************
Start time      : A.D. 2019-Oct-15 00:00:00.0000 TDB
Stop  time      : A.D. 2022-Jul-11 00:00:00.0000 TDB
Step-size       : 1440 minutes
*******************************************************************************
Center geodetic : 0.00000000,0.00000000,0.0000000 {E-lon(deg),Lat(deg),Alt(km)}
Center cylindric: 0.00000000,0.00000000,0.0000000 {E-lon(deg),Dxy(km),Dz(km)}
Center radii    : 696000.0 x 696000.0 x 696000.0 k{Equator, meridian, pole}    
Output units    : AU-D                                                         
Output type     : GEOMETRIC cartesian states
Output format   : 3 (position, velocity, LT, range, range-rate)
Reference frame : ICRF/J2000.0                                                 
Coordinate systm: Ecliptic and Mean Equinox of Reference Epoch                 
*******************************************************************************
            JDTDB,            Calendar Date (TDB),                      X,                      Y,                      Z,                     VX,                     VY,                     VZ,                     LT,                     RG,                     RR,
**************************************************************************************************************************************************************************************************************************************************************************
$$SOE
2459107.500000000, A.D. 2020-Sep-15 00:00:00.0000, -1.892269979544113E-01, -4.236535118326257E-01, -1.726084999143323E-02,  2.002753871298102E-02, -1.009929320590749E-02, -2.662431195333724E-03,  2.681651538174919E-03,  4.643135705376080E-01,  1.151820377536828E-03,
2459108.500000000, A.D. 2020-Sep-16 00:00:00.0000, -1.689303169362740E-01, -4.331232627273151E-01, -1.989652672925879E-02,  2.055528110411292E-02, -8.836934276553059E-03, -2.607687658262633E-03,  2.687503796599172E-03,  4.653268576727900E-01,  8.745585500157225E-04,
2459109.500000000, A.D. 2020-Sep-17 00:00:00.0000, -1.481374934075630E-01, -4.413211183133454E-01, -2.247378193517594E-02,  2.101984588114897E-02, -7.555785558073128E-03, -2.545613286248279E-03,  2.691751665903083E-03,  4.660623534430639E-01,  5.962936233989184E-04,
2459110.500000000, A.D. 2020-Sep-18 00:00:00.0000, -1.269116620179140E-01, -4.482291210457310E-01, -2.498535672317314E-02,  2.142129528344101E-02, -6.257495665966718E-03, -2.476348507036234E-03,  2.694390309125057E-03,  4.665192203544909E-01,  3.173546547823466E-04,
2459111.500000000, A.D. 2020-Sep-19 00:00:00.0000, -1.053159672796494E-01, -4.538309183003625E-01, -2.742412245047055E-02,  2.175954633265207E-02, -4.943629729812819E-03, -2.400013605326618E-03,  2.695416757293996E-03,  4.666969443456609E-01,  3.806028224268746E-05,
2459112.500000000, A.D. 2020-Sep-20 00:00:00.0000, -8.341371173591300E-02, -4.581116905117791E-01, -2.978306125366143E-02,  2.203436501713915E-02, -3.615692564874044E-03, -2.316710082777019E-03,  2.694829863513857E-03,  4.665953268376801E-01, -2.412763561497323E-04,
2459113.500000000, A.D. 2020-Sep-21 00:00:00.0000, -6.126850971167710E-02, -4.610581023080775E-01, -3.205524795194951E-02,  2.224536092038810E-02, -2.275151547895572E-03, -2.226522034567642E-03,  2.692630285196177E-03,  4.662144816578272E-01, -5.203427823678059E-04,
2459114.500000000, A.D. 2020-Sep-22 00:00:00.0000, -3.894444625979520E-02, -4.626582765079079E-01, -3.423383334202365E-02,  2.239198218907250E-02, -9.234595200547208E-04, -2.129517559339404E-03,  2.688820494185160E-03,  4.655548367926589E-01, -7.988223479237075E-04,
2459115.500000000, A.D. 2020-Sep-23 00:00:00.0000, -1.650624099485673E-02, -4.629017911722341E-01, -3.631202892849872E-02,  2.247351078384566E-02,  4.379219499881650E-04, -2.025750224493542E-03,  2.683404814921313E-03,  4.646171409958387E-01, -1.076389343312205E-03,
2459116.500000000, A.D. 2020-Sep-24 00:00:00.0000,  5.980583459257220E-03, -4.617797002426686E-01, -3.828309315852262E-02,  2.248905800368264E-02,  1.807498597116524E-03, -1.915260614269159E-03,  2.676389491192270E-03,  4.634024753456827E-01, -1.352703977396517E-03,
2459117.500000000, A.D. 2020-Sep-25 00:00:00.0000,  2.844952869778717E-02, -4.592845786517519E-01, -4.014031925947099E-02,  2.243756032468294E-02,  3.183718423038711E-03, -1.798077993917987E-03,  2.667782782426435E-03,  4.619122699178879E-01, -1.627407155713981E-03,
2459118.500000000, A.D. 2020-Sep-26 00:00:00.0000,  5.083294379698602E-02, -4.554105931616810E-01, -4.187702481519893E-02,  2.231777564910144E-02,  4.564945210862725E-03, -1.674222129891551E-03,  2.657595090899266E-03,  4.601483258106178E-01, -1.900114985239077E-03,
2459119.500000000, A.D. 2020-Sep-27 00:00:00.0000,  7.306184509314621E-02, -4.501536005797256E-01, -4.348654325990384E-02,  2.212828012260568E-02,  5.949430188029465E-03, -1.543705313460288E-03,  2.645839121645356E-03,  4.581128428324200E-01, -2.170412931455402E-03,
2459120.500000000, A.D. 2020-Sep-28 00:00:00.0000,  9.506573315570060E-02, -4.435112754134348E-01, -4.496221752028259E-02,  2.186746575029920E-02,  7.335281410535512E-03, -1.406534643810341E-03,  2.632530077302581E-03,  4.558084532384449E-01, -2.437849551920422E-03,
2459121.500000000, A.D. 2020-Sep-29 00:00:00.0000,  1.167724079036802E-01, -4.354832694683408E-01, -4.629739609757226E-02,  2.153353912824328E-02,  8.720430416272752E-03, -1.262714636622002E-03,  2.617685890556443E-03,  4.532382619769369E-01, -2.701929729244622E-03,
2459122.500000000, A.D. 2020-Sep-30 00:00:00.0000,  1.381077831817520E-01, -4.260714063553147E-01, -4.748543195267552E-02,  2.112452171088329E-02,  1.010259567112136E-02, -1.112250235620553E-03,  2.601327497299422E-03,  4.504058939853094E-01, -2.962107326096665E-03,
2459123.500000000, A.D. 2020-Oct-01 00:00:00.0000,  1.589957025932113E-01, -4.152799143617704E-01, -4.851968464150815E-02,  2.063825216031735E-02,  1.147924231099094E-02, -9.551503177759624E-04,  2.583479154064081E-03,  4.473155491519825E-01, -3.217777186252116E-03,
2459124.500000000, A.D. 2020-Oct-02 00:00:00.0000,  1.793577590069610E-01, -4.031157016448761E-01, -4.939352624572919E-02,  2.007239147569651E-02,  1.284753767044801E-02, -7.914317978293972E-04,  2.564168803717110E-03,  4.439720656343454E-01, -3.468266409875151E-03,
2459125.500000000, A.D. 2020-Oct-03 00:00:00.0000,  1.991131209432033E-01, -3.895886782151229E-01, -5.010035175796206E-02,  1.942443178572725E-02,  1.420430208979406E-02, -6.211244546654848E-04,  2.543428493794494E-03,  4.403809922912441E-01, -3.712824839590515E-03,
2459126.500000000, A.D. 2020-Oct-04 00:00:00.0000,  2.181783700335721E-01, -3.747121296773686E-01, -5.063359471227665E-02,  1.869170991020003E-02,  1.554595451572355E-02, -4.442766205999609E-04,  2.521294852186092E-03,  4.365486710452141E-01, -3.950614708388942E-03,
2459127.500000000, A.D. 2020-Oct-05 00:00:00.0000,  2.364673549870622E-01, -3.585031481563570E-01, -5.098674900163105E-02,  1.787142706375636E-02,  1.686845246737130E-02, -2.609618945396024E-04,  2.497809625098654E-03,  4.324823300278884E-01, -4.180699423570293E-03,
2459128.500000000, A.D. 2020-Oct-06 00:00:00.0000,  2.538910690205843E-01, -3.409831262139858E-01, -5.115339799515958E-02,  1.696067639238052E-02,  1.816722604508195E-02, -7.128706045229704E-05,  2.473020282280442E-03,  4.281901883713933E-01, -4.402031496117342E-03,
2459129.500000000, A.D. 2020-Oct-07 00:00:00.0000,  2.703575595845947E-01, -3.221783198075817E-01, -5.112725225965790E-02,  1.595648040464291E-02,  1.943710583420405E-02,  1.245985876302565E-04,  2.446980694296557E-03,  4.236815734749351E-01, -4.613439676445934E-03,
2459130.500000000, A.D. 2020-Oct-08 00:00:00.0000,  2.857718814852989E-01, -3.021204863597779E-01, -5.090219739968452E-02,  1.485584078694124E-02,  2.067224482765148E-02,  3.264922958465187E-04,  2.419751886092142E-03,  4.189670514802242E-01, -4.813615430892842E-03,
